{
"type": "FeatureCollection",
"name": "cable",
"crs": { "type": "name", "properties": { "name": "urn:ogc:def:crs:OGC:1.3:CRS84" } },
"features": [
{ "type": "Feature", "properties": { "cable_type": "optical", "cable_subtype": "backbone", "color_code": null, "tube_count": null, "fiber_count": 48, "cable_model": null, "fiber_type": null, "sheath_type": null, "armour_type": null, "wavelength_band": null, "name": "UC-1", "attenuation_db_km": null, "chromatic_dispersion_ps_nm_km": null, "status": "existing", "installation_type": null, "network_type": null, "install_year": null, "constr_fibers_in_tubes": null, "constr_bonded_element": null, "constr_gel_filled": null, "constr_aramid_armour": null, "constr_non_metallic": null, "from_label": null, "to_label": null, "length_m": 202.85030057757567, "slack_m": 0.0, "total_length_m": 202.85030057757567, "fibers_per_tube": null, "total_fibers": null, "color_standard": null, "fiberq_uuid": "fe1b0000-0000-4000-8000-000000000004", "fq_type": "cable.underground", "placement": null, "fq_extra_json": null }, "geometry": { "type": "LineString", "coordinates": [ [ 17.067990398270908, 43.575609822145559 ], [ 17.069068376611852, 43.575609822145559 ], [ 17.070505681066443, 43.575609822145559 ] ] } },
{ "type": "Feature", "properties": { "cable_type": null, "cable_subtype": "distribution", "color_code": null, "tube_count": null, "fiber_count": 24, "cable_model": null, "fiber_type": null, "sheath_type": null, "armour_type": null, "wavelength_band": null, "name": "UC-2", "attenuation_db_km": null, "chromatic_dispersion_ps_nm_km": null, "status": "Someday", "installation_type": null, "network_type": null, "install_year": null, "constr_fibers_in_tubes": null, "constr_bonded_element": null, "constr_gel_filled": null, "constr_aramid_armour": null, "constr_non_metallic": null, "from_label": null, "to_label": null, "length_m": 144.89150592187642, "slack_m": 0.0, "total_length_m": 144.89150592187642, "fibers_per_tube": null, "total_fibers": null, "color_standard": null, "fiberq_uuid": "fe1b0000-0000-4000-8000-000000000005", "fq_type": "cable.underground", "placement": null, "fq_extra_json": null }, "geometry": { "type": "LineString", "coordinates": [ [ 17.069068376611852, 43.575609822145559 ], [ 17.069068376611852, 43.576911404688637 ] ] } }
]
}
