{
"type": "FeatureCollection",
"name": "cable",
"crs": { "type": "name", "properties": { "name": "urn:ogc:def:crs:OGC:1.3:CRS84" } },
"features": [
{ "type": "Feature", "properties": { "cable_type": "optical", "cable_subtype": "drop", "color_code": null, "tube_count": null, "fiber_count": 9999, "cable_model": null, "fiber_type": null, "sheath_type": null, "armour_type": null, "wavelength_band": null, "name": "AC-2", "attenuation_db_km": null, "chromatic_dispersion_ps_nm_km": null, "status": "planned", "installation_type": null, "network_type": null, "install_year": null, "constr_fibers_in_tubes": null, "constr_bonded_element": null, "constr_gel_filled": null, "constr_aramid_armour": null, "constr_non_metallic": null, "from_label": null, "to_label": null, "length_m": 50.712081879858339, "slack_m": 0.0, "total_length_m": 50.712081879858339, "fibers_per_tube": null, "total_fibers": null, "color_standard": null, "fiberq_uuid": "fe1b0000-0000-4000-8000-000000000006", "fq_type": "cable.aerial", "placement": null, "fq_extra_json": null }, "geometry": { "type": "LineString", "coordinates": [ [ 17.071224333293738, 43.576195537771504 ], [ 17.07185315399262, 43.576195537771504 ] ] } },
{ "type": "Feature", "properties": { "cable_type": "optical", "cable_subtype": "drop", "color_code": null, "tube_count": null, "fiber_count": 12, "cable_model": null, "fiber_type": null, "sheath_type": null, "armour_type": null, "wavelength_band": null, "name": "AC-3", "attenuation_db_km": null, "chromatic_dispersion_ps_nm_km": null, "status": "planned", "installation_type": null, "network_type": null, "install_year": null, "constr_fibers_in_tubes": null, "constr_bonded_element": null, "constr_gel_filled": null, "constr_aramid_armour": null, "constr_non_metallic": null, "from_label": null, "to_label": null, "length_m": 43.468062484966538, "slack_m": 0.0, "total_length_m": 43.468062484966538, "fibers_per_tube": null, "total_fibers": null, "color_standard": null, "fiberq_uuid": "fe1b0000-0000-4000-8000-000000000007", "fq_type": "cable.aerial", "placement": null, "fq_extra_json": null }, "geometry": { "type": "LineString", "coordinates": [ [ 17.07056856313633, 43.575609822145559 ], [ 17.07056856313633, 43.575219341896542 ] ] } }
]
}
