{
"type": "FeatureCollection",
"name": "fiber_break",
"crs": { "type": "name", "properties": { "name": "urn:ogc:def:crs:OGC:1.3:CRS84" } },
"features": [
{ "type": "Feature", "properties": { "name": "FB-1", "distance_m": 60.0, "segments_hit": null, "recorded_at": null, "fiberq_uuid": "fe1b0000-0000-4000-8000-000000000021", "fq_type": "fiber_break", "placement": null, "fq_extra_json": null, "cable_uuid": "fe1b0000-0000-4000-8000-000000000001" }, "geometry": { "type": "Point", "coordinates": [ 17.06852938744138, 43.575609822145559 ] } }
]
}
