{
"type": "FeatureCollection",
"name": "manhole",
"crs": { "type": "name", "properties": { "name": "urn:ogc:def:crs:OGC:1.3:CRS84" } },
"features": [
{ "type": "Feature", "properties": { "manhole_id": null, "manhole_type": null, "construction_type": null, "position": null, "address": null, "status": null, "install_year": null, "description": null, "dimensions_cm": null, "wall_material": null, "cover_material": null, "drainage": null, "cover_heavy": null, "cover_light": null, "step_count": null, "wall_thickness_cm": null, "ladder": null, "fiberq_uuid": "fe1b0000-0000-4000-8000-000000000014", "fq_type": "manhole", "placement": null, "fq_extra_json": null }, "geometry": { "type": "Point", "coordinates": [ 17.069068376611852, 43.575609822145559 ] } },
{ "type": "Feature", "properties": { "manhole_id": null, "manhole_type": null, "construction_type": null, "position": null, "address": null, "status": null, "install_year": null, "description": null, "dimensions_cm": null, "wall_material": null, "cover_material": null, "drainage": null, "cover_heavy": null, "cover_light": null, "step_count": null, "wall_thickness_cm": null, "ladder": null, "fiberq_uuid": "fe1b0000-0000-4000-8000-000000000015", "fq_type": "manhole", "placement": null, "fq_extra_json": null }, "geometry": { "type": "Point", "coordinates": [ 17.069068376611852, 43.576911404688637 ] } }
]
}
