{
"type": "FeatureCollection",
"name": "pole",
"crs": { "type": "name", "properties": { "name": "urn:ogc:def:crs:OGC:1.3:CRS84" } },
"features": [
{ "type": "Feature", "properties": { "pole_type": "Pole", "segment_type": null, "height_m": null, "material": null, "fiberq_uuid": "fe1b0000-0000-4000-8000-000000000900", "fq_type": "pole", "placement": null, "fq_extra_json": null }, "geometry": { "type": "Point", "coordinates": [ 17.067990398270908, 43.575609822145559 ] } },
{ "type": "Feature", "properties": { "pole_type": "Pole", "segment_type": null, "height_m": null, "material": null, "fiberq_uuid": "fe1b0000-0000-4000-8000-000000000009", "fq_type": "pole", "placement": null, "fq_extra_json": null }, "geometry": { "type": "Point", "coordinates": [ 17.069068376611852, 43.575609822145559 ] } },
{ "type": "Feature", "properties": { "pole_type": "Pole", "segment_type": null, "height_m": null, "material": null, "fiberq_uuid": "fe1b0000-0000-4000-8000-000000000010", "fq_type": "pole", "placement": null, "fq_extra_json": null }, "geometry": { "type": "Point", "coordinates": [ 17.070505681066443, 43.575609822145559 ] } },
{ "type": "Feature", "properties": { "pole_type": "Pole", "segment_type": null, "height_m": null, "material": null, "fiberq_uuid": "fe1b0000-0000-4000-8000-000000000011", "fq_type": "pole", "placement": null, "fq_extra_json": null }, "geometry": { "type": "Point", "coordinates": [ 17.069787028839148, 43.575902680670659 ] } },
{ "type": "Feature", "properties": { "pole_type": "Pole", "segment_type": null, "height_m": null, "material": null, "fiberq_uuid": "fe1b0000-0000-4000-8000-000000000012", "fq_type": "pole", "placement": null, "fq_extra_json": null }, "geometry": null },
{ "type": "Feature", "properties": { "pole_type": "Pole", "segment_type": null, "height_m": null, "material": null, "fiberq_uuid": "fe1b0000-0000-4000-8000-000000000900", "fq_type": "pole", "placement": null, "fq_extra_json": null }, "geometry": { "type": "Point", "coordinates": [ 17.067990398270908, 43.575609822145559 ] } }
]
}
