{
"type": "FeatureCollection",
"name": "route",
"crs": { "type": "name", "properties": { "name": "urn:ogc:def:crs:OGC:1.3:CRS84" } },
"features": [
{ "type": "Feature", "properties": { "name": "R-1", "length_m": 86.935843104675286, "length_km": 0.09, "route_type": "underground", "fiberq_uuid": "fe1b0000-0000-4000-8000-000000000001", "fq_type": "route", "placement": null, "fq_extra_json": null }, "geometry": { "type": "LineString", "coordinates": [ [ 17.067990398270908, 43.575609822145559 ], [ 17.069068376611852, 43.575609822145559 ] ] } },
{ "type": "Feature", "properties": { "name": "R-2", "length_m": 115.91445747290038, "length_km": 0.12, "route_type": "underground", "fiberq_uuid": "fe1b0000-0000-4000-8000-000000000002", "fq_type": "route", "placement": null, "fq_extra_json": null }, "geometry": { "type": "LineString", "coordinates": [ [ 17.069068376611852, 43.575609822145559 ], [ 17.070505681066443, 43.575609822145559 ] ] } },
{ "type": "Feature", "properties": { "name": "R-3", "length_m": 210.0, "length_km": 0.21, "route_type": "aerial", "fiberq_uuid": "fe1b0000-0000-4000-8000-000000000003", "fq_type": "route", "placement": null, "fq_extra_json": null }, "geometry": { "type": "LineString", "coordinates": [ [ 17.069068376611852, 43.575609822145559 ], [ 17.069068376611852, 43.576911404688637 ] ] } }
]
}
